[{"OBJECT_NAME":"OOV-CUBE (TUBSAT-30)","OBJECT_ID":"2024-128F","EPOCH":"2026-03-05T16:51:21.620448","MEAN_MOTION":15.02213817,"ECCENTRICITY":0.0054836,"INCLINATION":61.9942,"RA_OF_ASC_NODE":226.2774,"ARG_OF_PERICENTER":111.5078,"MEAN_ANOMALY":249.1871,"EPHEMERIS_TYPE":0,"CLASSIFICATION_TYPE":"U","NORAD_CAT_ID":60240,"ELEMENT_SET_NO":999,"REV_AT_EPOCH":9056,"BSTAR":0.00037912,"MEAN_MOTION_DOT":4.973e-5,"MEAN_MOTION_DDOT":0}]
