OOV-CUBE (TUBSAT-30)    
1 60240U 24128F   26064.70233357  .00004973  00000+0  37912-3 0  9994
2 60240  61.9942 226.2774 0054836 111.5078 249.1871 15.02213817 90566
